# From MPC106342
C/1995 O1 (Hale-Bopp),e,89.0117,283.3148,130.5564,179.3226,0.0004104,0.99494318,0.0000,03/29.7248/1997,2000,g -2.0,4.0
# From NK 1615
P/1996 R2 (Lagerkvist),e,2.6003,40.0327,333.3101,3.775051,0.1343754,0.31402277,86.5877,11/17.0/2020,2000,g 11.5,4.0
# From MPC 30063
P/1997 B1 (Kobayashi),e,12.3396,328.8850,183.3609,8.567602,0.0393020,0.76010569,340.4745,11/17.0/2020,2000,g 15.0,2.0
# From MPC 75703
P/1998 VS24 (LINEAR),e,5.0252,159.0310,244.6795,4.529663,0.1022363,0.24196163,105.7128,11/17.0/2020,2000,g 13.0,2.0
# From NK 731
P/1999 RO28 (LONEOS),e,7.5666,137.8833,231.2700,3.426789,0.1553721,0.67204746,79.2240,11/17.0/2020,2000,g 20.0,2.0
# From MPC 75704
P/1999 XN120 (Catalina),e,5.0297,285.2956,161.9031,4.178982,0.1153714,0.21035490,144.8243,11/17.0/2020,2000,g 13.5,2.0
# From NK 744
P/2000 R2 (LINEAR),e,11.6844,160.2946,176.5150,3.466063,0.1527388,0.53156011,79.2090,11/17.0/2020,2000,g 18.0,4.0
# From MPC 43019
P/2001 H5 (NEAT),e,8.3674,328.6851,224.8691,6.098131,0.0654499,0.59869049,121.4461,11/17.0/2020,2000,g 12.0,4.0
# From MPC 75704
P/2001 Q6 (NEAT),e,56.9022,22.1287,42.9463,7.950533,0.0439653,0.82280805,307.2810,11/17.0/2020,2000,g 13.5,4.0
# From MPC 47727
P/2002 EJ57 (LINEAR),e,4.9761,330.3288,167.3625,6.473220,0.0598444,0.59281312,52.8123,11/17.0/2020,2000,g 12.5,4.0
# From MPEC 2020-SI8
P/2002 T5 (LINEAR),e,30.8529,123.0884,326.7666,7.005401,0.0531563,0.43790620,339.1197,11/17.0/2020,2000,g  8.0,4.0
# From MPC109588
P/2002 T6 (NEAT-LINEAR),e,10.8333,206.4592,219.5913,7.670140,0.0463980,0.56003981,297.6099,11/17.0/2020,2000,g 10.5,4.0
# From MPC 50354
P/2003 F2 (NEAT),e,11.6047,359.0741,191.9174,6.489825,0.0596149,0.54220083,22.1004,11/17.0/2020,2000,g 16.5,2.0
# From MPC 50139
P/2003 QX29 (NEAT),e,11.3898,264.5889,37.4004,8.032800,0.0432916,0.47296807,285.4555,11/17.0/2020,2000,g  8.5,4.0
# From MPC105235
P/2003 T12 (SOHO),e,11.0168,174.5734,219.7697,2.586214,0.2369776,0.76964199,46.0066,11/17.0/2020,2000,g 17.0,4.0
# From MPC 82312
P/2004 A1 (LONEOS),e,10.5516,124.8476,21.4224,7.955706,0.0439224,0.30937367,260.8304,11/17.0/2020,2000,g  6.5,4.0
# From MPC 54558
P/2004 DO29 (Spacewatch-LINEAR),e,14.5317,147.3800,40.7244,7.282709,0.0501493,0.44133682,295.0236,11/17.0/2020,2000,g 13.5,2.0
# From MPC 54823
P/2004 FY140 (LINEAR),e,2.1348,326.7615,242.4608,4.901647,0.0908220,0.16862630,176.3728,11/17.0/2020,2000,g 12.5,2.0
# From MPC 53304
P/2004 R3 (LINEAR-NEAT),e,12.8258,305.4806,38.7172,4.794038,0.0938970,0.26129650,330.4609,11/17.0/2020,2000,g 14.5,4.0
# From MPC 55521
P/2004 V3 (Siding Spring),e,50.4326,356.1156,322.2990,7.144122,0.0516156,0.44632351,303.2264,11/17.0/2020,2000,g 11.5,4.0
# From MPC 75705
P/2004 V5 (LINEAR-Hill),e,19.3451,47.7696,87.7875,7.975748,0.0437569,0.44353782,252.0660,11/17.0/2020,2000,g  8.0,4.0
# From MPC 54164
P/2005 E1 (Tubbiolo),e,4.2637,335.5725,194.1249,7.037438,0.0527937,0.37519021,304.7262,11/17.0/2020,2000,g 10.0,4.0
# From MPC 54823
P/2005 GF8 (LONEOS),e,1.1936,314.8345,285.1122,5.862435,0.0694364,0.51815764,28.7775,11/17.0/2020,2000,g 11.5,4.0
# From MPC 79019
P/2005 J1 (McNaught),e,31.7666,268.8033,338.9569,3.569773,0.1461313,0.56988364,111.9790,11/17.0/2020,2000,g 16.5,4.0
# From MPC 74246
P/2005 L1 (McNaught),e,7.7386,138.2476,149.6967,3.975238,0.1243539,0.20935960,316.3995,11/17.0/2020,2000,g  9.5,4.0
# From MPC 75706
P/2005 S2 (Skiff),e,3.1357,161.1960,229.1598,8.017362,0.0434167,0.19687646,230.4352,11/17.0/2020,2000,g  7.5,4.0
# From MPC 75706
P/2005 SB216 (LONEOS),e,24.0721,1.2394,83.3940,7.127099,0.0518006,0.46331070,262.0907,11/17.0/2020,2000,g 12.0,2.0
# From MPC 55717
P/2005 T2 (Christensen),e,8.2927,260.1573,58.8098,3.845919,0.1306784,0.41640437,29.0938,11/17.0/2020,2000,g 14.5,4.0
# From MPC 73461
P/2005 T3 (Read),e,6.2247,27.7434,7.0326,7.577283,0.0472535,0.17393889,260.5027,11/17.0/2020,2000,g  9.0,4.0
# From MPC 73461
P/2005 T4 (SWAN),e,160.1804,25.6677,41.5720,9.360878,0.0344135,0.92992669,190.2561,11/17.0/2020,2000,g 15.0,4.0
# From MPC 75706
P/2005 T5 (Broughton),e,21.3524,57.0074,304.5235,7.291637,0.0500572,0.55198243,276.3687,11/17.0/2020,2000,g 11.0,4.0
# From MPC 56954
P/2005 W3 (Kowalski),e,16.4174,210.0917,200.6780,6.332250,0.0618539,0.54351516,340.9661,11/17.0/2020,2000,g 12.0,4.0
# From MPEC 2020-W25
P/2005 XA54 (LONEOS-Hill),e,17.1184,143.6712,15.1380,6.051443,0.0662088,0.71014597,355.2215,11/17.0/2020,2000,g 14.0,4.0
# From MPC 75706
P/2005 Y2 (McNaught),e,19.0953,94.5116,194.0415,6.383258,0.0611140,0.47035654,1.6622,11/17.0/2020,2000,g  9.0,4.0
# From MPC 56954
P/2006 F4 (Spacewatch),e,12.4010,183.8816,31.1677,3.527124,0.1487897,0.33934932,70.2774,11/17.0/2020,2000,g 15.0,4.0
# From MPC 75707
P/2006 HR30 (Siding Spring),e,31.8302,309.9016,117.2914,7.811245,0.0451465,0.84200991,229.6592,11/17.0/2020,2000,g 11.0,4.0
# From MPC 75707
P/2006 S4 (Christensen),e,39.5360,36.0954,305.1509,6.310901,0.0621680,0.50795824,333.6580,11/17.0/2020,2000,g 11.0,4.0
# From MPC 75707
P/2007 A2 (Christensen),e,26.4877,300.9067,186.7607,6.324528,0.0619672,0.55755791,313.9945,11/17.0/2020,2000,g 13.5,4.0
# From MPC 59319
P/2007 B1 (Christensen),e,12.3763,77.6667,46.7528,5.819571,0.0702049,0.58092444,355.1108,11/17.0/2020,2000,g 13.5,4.0
# From MPC 75707
P/2007 C2 (Catalina),e,8.6599,275.6332,179.8869,6.994451,0.0532812,0.46996116,255.7210,11/17.0/2020,2000,g 10.0,4.0
# From MPC 82314
P/2007 K2 (Gibbs),e,7.6367,188.6470,347.4709,7.262500,0.0503587,0.68337059,247.4269,11/17.0/2020,2000,g 14.0,4.0
# From MPC 60925
P/2007 Q2 (Gilmore),e,10.2022,172.1603,162.7777,5.655792,0.0732764,0.67030971,359.2689,11/17.0/2020,2000,g 16.0,4.0
# From MPEC 2020-W26
P/2007 R2 (Gibbs),e,1.2136,11.4733,352.3582,3.573022,0.1459320,0.54188903,9.0920,11/17.0/2020,2000,g 17.0,4.0
# From MPC 75708
P/2007 R4 (Garradd),e,20.2266,87.2224,282.6666,5.925894,0.0683240,0.66997204,333.5674,11/17.0/2020,2000,g 14.5,4.0
# From MPC 73462
P/2007 S1 (Zhao),e,5.9631,141.3805,245.7513,3.812577,0.1323964,0.33963747,268.5634,11/17.0/2020,2000,g 13.0,4.0
# From MPC 61994
P/2007 T2 (Kowalski),e,9.7446,3.3753,359.6356,3.047218,0.1852886,0.78521474,156.9929,11/17.0/2020,2000,g 18.5,4.0
# From MPEC 2020-W26
P/2007 VQ11 (Catalina),e,12.3200,163.8180,277.6616,5.426003,0.0779801,0.50326472,4.8084,11/17.0/2020,2000,g 12.0,4.0
# From MPEC 2020-W26
C/2011 KP36 (Spacewatch),e,18.9842,173.2990,180.6551,38.87838,0.0040658,0.87449066,6.6448,11/17.0/2020,2000,g  4.5,4.0
# From MPC 75708
P/2008 CL94 (Lemmon),e,8.3474,33.3324,80.5356,6.160729,0.0644549,0.12024966,340.0827,11/17.0/2020,2000,g  8.0,4.0
# From MPC 75709
P/2008 L2 (Hill),e,25.8561,218.0051,141.2103,6.028642,0.0665848,0.61300627,299.7228,11/17.0/2020,2000,g 12.5,4.0
# From MPC 64114
P/2008 O3 (Boattini),e,32.2477,47.5991,341.0860,8.223370,0.0417955,0.69503064,190.6473,11/17.0/2020,2000,g 13.0,4.0
# From MPC 75709
P/2008 QP20 (LINEAR-Hill),e,7.5212,322.0804,75.6405,3.551930,0.1472338,0.49233771,299.4690,11/17.0/2020,2000,g 15.5,4.0
# From MPC 66204
P/2008 WZ96 (LINEAR),e,7.1125,56.4947,341.8512,3.490939,0.1511091,0.47046564,317.2900,11/17.0/2020,2000,g 13.5,4.0
# From MPC 75710
P/2008 Y3 (McNaught),e,38.7627,262.7899,238.2729,8.045808,0.0431867,0.44554799,187.5923,11/17.0/2020,2000,g  8.5,4.0
# From MPC 75710
P/2009 B1 (Boattini),e,22.2192,297.0914,128.8981,6.735718,0.0563804,0.63463474,244.1673,11/17.0/2020,2000,g 13.0,4.0
# From MPC 75710
P/2009 O3 (Hill),e,16.2634,183.7173,154.3858,7.770744,0.0454999,0.68751227,191.0549,11/17.0/2020,2000,g 12.5,4.0
# From MPC 98557
P/2009 Q1 (Hill),e,14.5054,173.9588,157.1249,5.520019,0.0759964,0.49475250,317.9609,11/17.0/2020,2000,g 11.5,4.0
# From MPEC 2020-SI8
P/2009 Q4 (Boattini),e,11.0153,127.4645,320.2341,3.127955,0.1781613,0.58257587,352.9189,11/17.0/2020,2000,g 15.5,4.0
# From MPC 68902
P/2009 Q5 (McNaught),e,40.9729,160.2619,209.0193,7.438241,0.0485846,0.60863887,198.8873,11/17.0/2020,2000,g 10.0,4.0
# From MPC112389
P/2009 T2 (La Sagra),e,27.5448,215.7887,216.4240,7.724443,0.0459096,0.76506144,182.6071,11/17.0/2020,2000,g 14.0,4.0
# From MPC 75711
P/2009 U4 (McNaught),e,10.0810,55.3585,259.8425,5.083099,0.0860025,0.67607797,353.4540,11/17.0/2020,2000,g 14.0,4.0
# From MPC105235
P/2009 WX51 (Catalina),e,9.5953,31.6844,118.0666,3.080147,0.1823253,0.74027281,0.1166,11/17.0/2020,2000,g 19.0,2.0
# From MPC 74247
P/2009 Y2 (Kowalski),e,29.9293,262.0241,172.1731,6.548951,0.0588094,0.63585943,230.0661,11/17.0/2020,2000,g 13.0,4.0
# From MPC 75711
P/2010 A3 (Hill),e,14.8657,64.0922,41.9362,6.075477,0.0658163,0.73325470,256.1547,11/17.0/2020,2000,g 14.0,4.0
# From MPC 72851
P/2010 A5 (LINEAR),e,5.7979,277.6638,307.0878,5.083549,0.0859911,0.66503283,331.2374,11/17.0/2020,2000,g 13.0,4.0
# From MPC105235
P/2010 B2 (WISE),e,8.9306,0.8480,155.9190,3.109985,0.1797077,0.47989932,356.8430,11/17.0/2020,2000,g 17.0,4.0
# From MPC 75008
P/2010 C1 (Scotti),e,9.1282,141.8862,3.7842,7.102749,0.0520672,0.25861635,209.2275,11/17.0/2020,2000,g  9.5,4.0
# From MPC 75008
P/2010 D2 (WISE),e,57.0848,319.8918,120.0982,6.715568,0.0566343,0.45085014,222.3656,11/17.0/2020,2000,g 16.0,4.0
# From MPC 75009
P/2010 E2 (Jarnac),e,15.4064,177.8250,8.3707,8.637845,0.0388236,0.72027039,150.6450,11/17.0/2020,2000,g 14.0,4.0
# From MPC 72851
P/2010 H2 (Vales),e,14.2729,64.2073,128.2014,3.834486,0.1312633,0.19565411,152.9003,11/17.0/2020,2000,g  6.0,4.0
# From MPC 70361
P/2010 H3 (SOHO),e,23.0915,77.1105,26.1296,3.059980,0.1841307,0.98548913,0.0000,02/07.9634/2021,2000,g 20.0,2.0
# From MPC 73463
P/2010 H4 (Scotti),e,2.3190,44.7477,179.5610,6.589517,0.0582671,0.26758768,221.5650,11/17.0/2020,2000,g 10.5,4.0
# From MPC 74637
P/2010 H5 (Scotti),e,14.0674,24.8092,175.2862,7.158499,0.0514602,0.15369697,199.3527,11/17.0/2020,2000,g 13.0,2.0
# From MPC 98558
P/2010 J3 (McMillan),e,13.2893,106.4092,157.5837,8.970043,0.0366870,0.72727239,136.9144,11/17.0/2020,2000,g 11.0,4.0
# From MPC 84315
P/2010 JC81 (WISE),e,38.7167,30.8420,12.4436,8.111280,0.0426648,0.77667396,149.3226,11/17.0/2020,2000,g  9.0,4.0
# From MPC 74248
